{
  "type": "FeatureCollection",
  "features": [
    {
      "type": "Feature",
      "properties": {
        "norad_id": 43602,
        "name": "BEIDOU-3 M12 (C26)",
        "group": "beidou",
        "lat": -22.429545548829022,
        "lon": 169.86172059645946,
        "alt_km": 21522.092622201715,
        "timestamp": "2025-12-17T09:00:17.413618+00:00",
        "meta_object_name": "BEIDOU-3 M12 (C26)",
        "meta_object_id": "2018-067A",
        "meta_epoch": "2025-12-15T19:20:53.031840",
        "meta_mean_motion": 1.86227731,
        "meta_eccentricity": 0.00092007,
        "meta_inclination": 54.1833,
        "meta_ra_of_asc_node": 187.259,
        "meta_arg_of_pericenter": 40.7418,
        "meta_mean_anomaly": 319.394,
        "meta_ephemeris_type": 0,
        "meta_classification_type": "U",
        "meta_norad_cat_id": 43602,
        "meta_element_set_no": 999,
        "meta_rev_at_epoch": 4970,
        "meta_bstar": 0,
        "meta_mean_motion_dot": 1.15e-06,
        "meta_mean_motion_ddot": 0,
        "tle_line1": "1 43602U 18067A   25349.80616935  .00000115  00000+0  00000+0 0  9993",
        "tle_line2": "2 43602  54.1833 187.2590 0009200  40.7418 319.3940  1.86227731 49704"
      },
      "geometry": {
        "type": "Point",
        "coordinates": [
          169.86172059645946,
          -22.429545548829022
        ]
      }
    },
    {
      "type": "Feature",
      "properties": {
        "norad_id": 43603,
        "name": "BEIDOU-3 M11 (C25)",
        "group": "beidou",
        "lat": -45.5932507177847,
        "lon": 54.70812242057298,
        "alt_km": 21547.733526379543,
        "timestamp": "2025-12-17T09:00:17.413629+00:00",
        "meta_object_name": "BEIDOU-3 M11 (C25)",
        "meta_object_id": "2018-067B",
        "meta_epoch": "2025-12-15T22:34:35.294592",
        "meta_mean_motion": 1.86227255,
        "meta_eccentricity": 0.00055828,
        "meta_inclination": 54.1803,
        "meta_ra_of_asc_node": 187.2185,
        "meta_arg_of_pericenter": 36.561,
        "meta_mean_anomaly": 323.544,
        "meta_ephemeris_type": 0,
        "meta_classification_type": "U",
        "meta_norad_cat_id": 43603,
        "meta_element_set_no": 999,
        "meta_rev_at_epoch": 4973,
        "meta_bstar": 0,
        "meta_mean_motion_dot": 1.15e-06,
        "meta_mean_motion_ddot": 0,
        "tle_line1": "1 43603U 18067B   25349.94068628  .00000115  00000+0  00000+0 0  9999",
        "tle_line2": "2 43603  54.1803 187.2185 0005582  36.5610 323.5440  1.86227255 49734"
      },
      "geometry": {
        "type": "Point",
        "coordinates": [
          54.70812242057298,
          -45.5932507177847
        ]
      }
    },
    {
      "type": "Feature",
      "properties": {
        "norad_id": 43622,
        "name": "BEIDOU-3 M13 (C32)",
        "group": "beidou",
        "lat": -56.476677228997765,
        "lon": -19.714727003374097,
        "alt_km": 21519.274598819087,
        "timestamp": "2025-12-17T09:00:17.413640+00:00",
        "meta_object_name": "BEIDOU-3 M13 (C32)",
        "meta_object_id": "2018-072A",
        "meta_epoch": "2025-12-15T21:31:53.202720",
        "meta_mean_motion": 1.86231028,
        "meta_eccentricity": 0.00060178,
        "meta_inclination": 56.4622,
        "meta_ra_of_asc_node": 68.7153,
        "meta_arg_of_pericenter": 299.0223,
        "meta_mean_anomaly": 60.938,
        "meta_ephemeris_type": 0,
        "meta_classification_type": "U",
        "meta_norad_cat_id": 43622,
        "meta_element_set_no": 999,
        "meta_rev_at_epoch": 4924,
        "meta_bstar": 0,
        "meta_mean_motion_dot": -8.2e-07,
        "meta_mean_motion_ddot": 0,
        "tle_line1": "1 43622U 18072A   25349.89714355 -.00000082  00000+0  00000+0 0  9999",
        "tle_line2": "2 43622  56.4622  68.7153 0006017 299.0223  60.9380  1.86231028 49241"
      },
      "geometry": {
        "type": "Point",
        "coordinates": [
          -19.714727003374097,
          -56.476677228997765
        ]
      }
    },
    {
      "type": "Feature",
      "properties": {
        "norad_id": 43623,
        "name": "BEIDOU-3 M14 (C33)",
        "group": "beidou",
        "lat": 0.9601284089203402,
        "lon": 69.30764807410364,
        "alt_km": 21520.015986767594,
        "timestamp": "2025-12-17T09:00:17.413651+00:00",
        "meta_object_name": "BEIDOU-3 M14 (C33)",
        "meta_object_id": "2018-072B",
        "meta_epoch": "2025-12-14T16:31:43.622976",
        "meta_mean_motion": 1.86230968,
        "meta_eccentricity": 0.00033007,
        "meta_inclination": 56.4633,
        "meta_ra_of_asc_node": 68.7492,
        "meta_arg_of_pericenter": 334.4118,
        "meta_mean_anomaly": 25.5906,
        "meta_ephemeris_type": 0,
        "meta_classification_type": "U",
        "meta_norad_cat_id": 43623,
        "meta_element_set_no": 999,
        "meta_rev_at_epoch": 4921,
        "meta_bstar": 0,
        "meta_mean_motion_dot": -8.3e-07,
        "meta_mean_motion_ddot": 0,
        "tle_line1": "1 43623U 18072B   25348.68869934 -.00000083  00000+0  00000+0 0  9991",
        "tle_line2": "2 43623  56.4633  68.7492 0003300 334.4118  25.5906  1.86230968 49219"
      },
      "geometry": {
        "type": "Point",
        "coordinates": [
          69.30764807410364,
          0.9601284089203402
        ]
      }
    },
    {
      "type": "Feature",
      "properties": {
        "norad_id": 43647,
        "name": "BEIDOU-3 M16 (C35)",
        "group": "beidou",
        "lat": -51.75746803483801,
        "lon": -167.7383274623591,
        "alt_km": 21544.9402387692,
        "timestamp": "2025-12-17T09:00:17.413662+00:00",
        "meta_object_name": "BEIDOU-3 M16 (C35)",
        "meta_object_id": "2018-078A",
        "meta_epoch": "2025-12-16T10:58:34.332384",
        "meta_mean_motion": 1.86232417,
        "meta_eccentricity": 0.00072794,
        "meta_inclination": 54.2586,
        "meta_ra_of_asc_node": 306.3912,
        "meta_arg_of_pericenter": 19.6101,
        "meta_mean_anomaly": 340.4043,
        "meta_ephemeris_type": 0,
        "meta_classification_type": "U",
        "meta_norad_cat_id": 43647,
        "meta_element_set_no": 999,
        "meta_rev_at_epoch": 4875,
        "meta_bstar": 0,
        "meta_mean_motion_dot": -9.5e-07,
        "meta_mean_motion_ddot": 0,
        "tle_line1": "1 43647U 18078A   25350.45734181 -.00000095  00000+0  00000+0 0  9999",
        "tle_line2": "2 43647  54.2586 306.3912 0007279  19.6101 340.4043  1.86232417 48759"
      },
      "geometry": {
        "type": "Point",
        "coordinates": [
          -167.7383274623591,
          -51.75746803483801
        ]
      }
    },
    {
      "type": "Feature",
      "properties": {
        "norad_id": 43648,
        "name": "BEIDOU-3 M15 (C34)",
        "group": "beidou",
        "lat": 9.048039145803218,
        "lon": 119.75481311803047,
        "alt_km": 21536.163200426217,
        "timestamp": "2025-12-17T09:00:17.413673+00:00",
        "meta_object_name": "BEIDOU-3 M15 (C34)",
        "meta_object_id": "2018-078B",
        "meta_epoch": "2025-12-16T14:04:39.514944",
        "meta_mean_motion": 1.86232061,
        "meta_eccentricity": 0.00038021,
        "meta_inclination": 54.2541,
        "meta_ra_of_asc_node": 306.3868,
        "meta_arg_of_pericenter": 19.0085,
        "meta_mean_anomaly": 340.9923,
        "meta_ephemeris_type": 0,
        "meta_classification_type": "U",
        "meta_norad_cat_id": 43648,
        "meta_element_set_no": 999,
        "meta_rev_at_epoch": 4877,
        "meta_bstar": 0,
        "meta_mean_motion_dot": -9.5e-07,
        "meta_mean_motion_ddot": 0,
        "tle_line1": "1 43648U 18078B   25350.58656846 -.00000095  00000+0  00000+0 0  9995",
        "tle_line2": "2 43648  54.2541 306.3868 0003802  19.0085 340.9923  1.86232061 48773"
      },
      "geometry": {
        "type": "Point",
        "coordinates": [
          119.75481311803047,
          9.048039145803218
        ]
      }
    },
    {
      "type": "Feature",
      "properties": {
        "norad_id": 43683,
        "name": "BEIDOU-3 G1 (C59)",
        "group": "beidou",
        "lat": -2.5599181238609523,
        "lon": 1.3455638457093506,
        "alt_km": 35793.076185451675,
        "timestamp": "2025-12-17T09:00:17.413685+00:00",
        "meta_object_name": "BEIDOU-3 G1 (C59)",
        "meta_object_id": "2018-085A",
        "meta_epoch": "2025-12-16T20:52:18.558336",
        "meta_mean_motion": 1.0026972,
        "meta_eccentricity": 0.00016308,
        "meta_inclination": 2.618,
        "meta_ra_of_asc_node": 102.847,
        "meta_arg_of_pericenter": 50.3145,
        "meta_mean_anomaly": 25.7215,
        "meta_ephemeris_type": 0,
        "meta_classification_type": "U",
        "meta_norad_cat_id": 43683,
        "meta_element_set_no": 999,
        "meta_rev_at_epoch": 2623,
        "meta_bstar": 0,
        "meta_mean_motion_dot": -2.55e-06,
        "meta_mean_motion_ddot": 0,
        "tle_line1": "1 43683U 18085A   25350.86965924 -.00000255  00000+0  00000+0 0  9991",
        "tle_line2": "2 43683   2.6180 102.8470 0001630  50.3145  25.7215  1.00269720 26235"
      },
      "geometry": {
        "type": "Point",
        "coordinates": [
          1.3455638457093506,
          -2.5599181238609523
        ]
      }
    }
  ]
}